FLOCK 4Q-7              
1 58318U 23174BQ  26064.74330719  .00036796  00000+0  68104-3 0  9996
2 58318  97.3939 153.2281 0007989 151.7556 208.4129 15.48903557129704
FLOCK 4Q-2              
1 58320U 23174BS  26064.91956098  .00029496  00000+0  63012-3 0  9994
2 58320  97.3868 151.2641 0008053 150.2947 209.8761 15.44773235129630
FLOCK 4Q-9              
1 58322U 23174BU  26064.74330635  .00028636  00000+0  61913-3 0  9993
2 58322  97.3905 151.1286 0008101 152.0904 208.0780 15.44424995129598
FLOCK 4Q-4              
1 58327U 23174BZ  26064.74389911  .00026578  00000+0  58244-3 0  9995
2 58327  97.3861 150.5071 0007514 169.2622 190.8788 15.44044280129572
FLOCK 4Q-13             
1 58328U 23174CA  26064.72038864  .00034333  00000+0  68621-3 0  9990
2 58328  97.4024 152.8771 0007527 164.2081 195.9405 15.46700908129654
FLOCK 4Q-21             
1 58329U 23174CB  26064.72006878  .00060786  00000+0  83983-3 0  9990
2 58329  97.3938 155.9013 0005781 169.4633 190.6745 15.56947704129872
FLOCK 4BE-18            
1 60480U 24149N   26064.70919968  .00024385  00000+0  65139-3 0  9993
2 60480  97.3781 147.6162 0003144 257.6021 102.4873 15.38084946 86385
FLOCK 4BE-7             
1 60481U 24149P   26064.65333187  .00018885  00000+0  53847-3 0  9992
2 60481  97.3811 147.1581 0002100 247.7630 112.3391 15.36109334 86334
FLOCK 4BE-26            
1 60484U 24149S   26064.73751091  .00101168  00000+0  22396-2 0  9993
2 60484  97.3770 147.5355 0005798 253.0413 107.0200 15.43399307 86383
FLOCK 4BE-36            
1 60486U 24149U   26064.74052120  .00024788  00000+0  64379-3 0  9993
2 60486  97.3791 148.1884 0002800 271.2842  88.8082 15.38950356 86421
FLOCK 4BE-25            
1 60487U 24149V   26064.73166170  .00018395  00000+0  52909-3 0  9997
2 60487  97.3847 147.3860 0001316 236.3898 123.7221 15.35843948 86343
FLOCK 4BE-31            
1 60488U 24149W   26064.71150648  .00027387  00000+0  69294-3 0  9995
2 60488  97.3846 148.7741 0001752 264.0349  96.0697 15.39733608 86433
FLOCK 4BE-20            
1 60489U 24149X   26064.70800780  .00017814  00000+0  52428-3 0  9999
2 60489  97.3753 146.5007 0002473 263.9759  96.1202 15.35124698 86326
FLOCK 4BE-23            
1 60490U 24149Y   26064.73897760  .00016924  00000+0  50399-3 0  9994
2 60490  97.3831 146.8510 0002093 275.2827  84.8177 15.34765528 86313
FLOCK 4BE-15            
1 60491U 24149Z   26064.81150122  .00079910  00000+0  20084-2 0  9999
2 60491  97.3768 147.9503 0003065 321.9008  38.2021 15.39666704 86421
FLOCK 4BE-17            
1 60492U 24149AA  26064.72220648  .00020267  00000+0  57085-3 0  9994
2 60492  97.3824 147.5037 0002143 253.1805 106.9205 15.36477664 86351
